STARLINK-32242          
1 60429U 24144E   25187.56138874 -.00000278  00000+0  27427-5 0  9995
2 60429  53.1593 280.5315 0000935 116.7684 243.3413 15.30190497 51660
STARLINK-32196          
1 60430U 24144F   25187.48974943 -.00000242  00000+0  39541-5 0  9994
2 60430  53.1605 280.7953 0001091  86.0036 274.1090 15.30183155 51611
STARLINK-32232          
1 60431U 24144G   25187.56561154 -.00000026  00000+0  11263-4 0  9990
2 60431  53.1596 280.5555 0001046 109.7530 250.3584 15.30190678 51622
STARLINK-32246          
1 60432U 24144H   25187.55400357 -.00000517  00000+0 -53382-5 0  9992
2 60432  53.1606 280.4832 0001070  90.7107 269.4016 15.30191130 51623
STARLINK-32183          
1 60433U 24144J   25187.55189718 -.00001191  00000+0 -28112-4 0  9999
2 60433  53.1614 280.4741 0001180  96.2258 263.8878 15.30188604 51561
STARLINK-32233          
1 60434U 24144K   25187.54239412  .00000159  00000+0  17507-4 0  9993
2 60434  53.1588 280.4067 0001023  72.4511 287.6601 15.30191233 51567
STARLINK-32222          
1 60435U 24144L   25187.54556432 -.00000770  00000+0 -13896-4 0  9996
2 60435  53.1605 280.4287 0001238  73.8464 286.2673 15.30187669 51621
STARLINK-32229          
1 60436U 24144M   25187.53922730  .00000631  00000+0  33430-4 0  9994
2 60436  53.1586 280.3860 0000996  69.6008 290.5100 15.30197042 51622
STARLINK-32241          
1 60437U 24144N   25187.53817126  .00000417  00000+0  26213-4 0  9990
2 60437  53.1587 280.3856 0000990  81.0936 279.0176 15.30193899 51622
STARLINK-32240          
1 60438U 24144P   25187.53605991  .00000193  00000+0  18630-4 0  9991
2 60438  53.1588 280.3646 0001130  77.1570 282.9557 15.30195470 51665
STARLINK-32231          
1 60439U 24144Q   25187.52867425 -.00000006  00000+0  11920-4 0  9992
2 60439  53.1597 280.3242 0001070  86.2458 273.8665 15.30191867 50728
STARLINK-32195          
1 60440U 24144R   25187.53289551 -.00000017  00000+0  11546-4 0  9999
2 60440  53.1595 280.3528 0001100  85.9207 274.1919 15.30193084 51626
STARLINK-32177          
1 60441U 24144S   25187.65614118  .00000344  00000+0  23744-4 0  9999
2 60441  53.1606 279.6981 0001244  98.8566 261.2576 15.30188296 51595
STARLINK-32252          
1 60442U 24144T   25187.51917450  .00000567  00000+0  31262-4 0  9991
2 60442  53.1601 280.2634 0001183  96.9401 263.1735 15.30189262 51663
STARLINK-32237          
1 60443U 24144U   25187.52234039  .00001141  00000+0  50660-4 0  9990
2 60443  53.1603 280.2832 0001425 119.8248 240.2895 15.30188749 51627
STARLINK-32249          
1 60444U 24144V   25187.57816423 -.00000337  00000+0  75377-6 0  9990
2 60444  53.1603 279.9208 0001354  79.7718 280.3436 15.30186809 51662
STARLINK-32228          
1 60445U 24144W   25187.58132902  .00000578  00000+0  31658-4 0  9993
2 60445  53.1587 279.9423 0001573 140.2333 219.8783 15.30188785 51671
STARLINK-32247          
1 60446U 24144X   25187.51607623  .00000664  00000+0  34541-4 0  9994
2 60446  53.1596 270.1638 0000992  84.0798 276.0316 15.30193661 51808
STARLINK-32101          
1 60447U 24144Y   25187.65191782 -.00000117  00000+0  81849-5 0  9992
2 60447  53.1605 279.6709 0001289  91.4896 268.6253 15.30189461 51589
LEGION 3                
1 60452U 24146A   25187.53830530  .00003647  00000+0  19954-3 0  9994
2 60452  45.0021  83.6995 0021561  31.3436 328.8723 15.15972524 49575
LEGION 4                
1 60453U 24146B   25187.47244719  .00002699  00000+0  15192-3 0  9992
2 60453  45.0363 175.2483 0009427  65.6165 294.5697 15.15936556 48417
EOS-08                  
1 60454U 24147A   25187.86047621  .00022739  00000+0  52429-3 0  9991
2 60454  37.3812  71.2867 0004003 287.0676  72.9648 15.41796689 50028
YAOGAN-43 01A           
1 60458U 24148A   25187.39083067  .00007176  00000+0  28271-3 0  9994
2 60458  34.9973 176.4753 0008065 263.5073  96.4724 15.24864967 49454
YAOGAN-43 01B           
1 60459U 24148B   25187.38117317  .00007005  00000+0  26630-3 0  9998
2 60459  34.9948 175.3565 0010264 288.5840  71.3761 15.26036355 49401
YAOGAN-43 01C           
1 60460U 24148C   25187.40103621  .00008324  00000+0  34579-3 0  9992
2 60460  34.9992 177.5806 0007105 297.4553  62.5439 15.23067527 49387
YAOGAN-43 01D           
1 60461U 24148D   25187.44174084  .00005052  00000+0  20167-3 0  9991
2 60461  34.9946 175.8581 0005431 275.4203  84.5892 15.24522374 49403
YAOGAN-43 01E           
1 60462U 24148E   25187.38922647  .00011086  24442-7  43546-3 0  9995
2 60462  34.9922 176.3453 0007489 302.3592  57.6398 15.24712189 49393
YAOGAN-43 01F           
1 60463U 24148F   25187.39564593  .00006398  00000+0  26715-3 0  9994
2 60463  34.9959 177.4409 0009314 316.0873  43.9101 15.22931876 49383
YAOGAN-43 01G           
1 60464U 24148G   25187.38248479  .00004991  00000+0  19887-3 0  9995
2 60464  34.9997 176.4542 0009837 245.9535 114.0151 15.24555769 49399
YAOGAN-43 01H           
1 60465U 24148H   25187.39712581  .00006477  00000+0  26977-3 0  9996
2 60465  34.9939 177.4241 0006430 303.5300  56.4800 15.23033881 49384
YAOGAN-43 01J           
1 60466U 24148J   25187.38835123  .00007649  00000+0  29130-3 0  9990
2 60466  34.9988 175.5334 0010060 329.8284  30.1851 15.25963901 49402
2024-149A               
1 60468U 24149A   25187.28106767  .00006233  00000+0  24782-3 0  9993
2 60468  97.4071 264.4750 0004041  34.1398 326.0100 15.25641649 49197
WARATAH SEED-1          
1 60469U 24149B   25187.25129653  .00006380  00000+0  25210-3 0  9990
2 60469  97.4048 264.4531 0003005  48.8951 311.2546 15.25843218 49191
PHISAT 2                
1 60470U 24149C   25187.77105033  .00004775  00000+0  19633-3 0  9993
2 60470  97.4100 264.8619 0002667  60.4464 299.7039 15.24639604 49250
LEMUR-2-TOMATOKECHUP    
1 60471U 24149D   25187.81583489  .00006638  00000+0  25175-3 0  9992
2 60471  97.4123 265.6581 0002898  61.8151 298.3380 15.27197945 49307
CONNECTA IOT-1          
1 60472U 24149E   25187.16742516  .00004245  00000+0  18311-3 0  9995
2 60472  97.4107 263.8621 0003500  67.0466 293.1140 15.23078428 49131
LOPEN                   
1 60473U 24149F   25187.76270716  .00008767  00000+0  32016-3 0  9991
2 60473  97.4109 265.8295 0003047  70.8824 289.2745 15.28350134 49318
ROCK                    
1 60474U 24149G   25187.88721212  .00008283  00000+0  30217-3 0  9991
2 60474  97.4105 265.9637 0003014  71.1536 289.0030 15.28402993 49321
CONNECTA IOT-3          
1 60475U 24149H   25187.74947523  .00004695  00000+0  20012-3 0  9997
2 60475  97.4060 264.4016 0004961  55.3720 304.7984 15.23422343 49237
QUBE                    
1 60476U 24149J   25187.16238586  .00012440  00000+0  41944-3 0  9990
2 60476  97.4101 265.8560 0003531  61.1974 298.9621 15.30858669 49268
SATORO-T2               
1 60477U 24149K   25187.78457242  .00027465  00000+0  74489-3 0  9994
2 60477  97.4087 267.8088 0001641  71.6071 288.5351 15.37594741 49454
WREN-1                  
1 60478U 24149L   25187.19500147  .00005602  00000+0  20029-3 0  9993
2 60478  97.4088 265.7243 0007324  67.0719 293.1293 15.29192671 49261
TOMORROW-S1             
1 60479U 24149M   25187.25352451  .00004625  00000+0  18074-3 0  9995
2 60479  97.4074 264.8150 0004114  59.3671 300.7972 15.26359672 49216
FLOCK 4BE-18            
1 60480U 24149N   25187.77061887  .00007963  00000+0  28841-3 0  9995
2 60480  97.4068 265.8113 0005975  60.7097 299.4740 15.28638327 49323
FLOCK 4BE-7             
1 60481U 24149P   25187.19709115  .00007283  00000+0  27057-3 0  9998
2 60481  97.4094 265.1836 0005111  64.6484 295.5284 15.27837841 49223
FLOCK 4BE-4             
1 60482U 24149Q   25187.77372778  .00056623  00000+0  99729-3 0  9991
2 60482  97.4083 272.5558 0001621  22.8155 337.3168 15.50255592 49766
FLOCK 4BE-16            
1 60483U 24149R   25187.17571667  .00007988  00000+0  28944-3 0  9995
2 60483  97.4089 265.3120 0004555  65.5471 294.6244 15.28632227 49233
FLOCK 4BE-26            
1 60484U 24149S   25187.21200902  .00019085  00000+0  69415-3 0  9991
2 60484  97.4062 265.1443 0005458  63.1243 297.0554 15.28278751 49234
TOMORROW-S2             
1 60485U 24149T   25187.29805966  .00005016  00000+0  19700-3 0  9992
2 60485  97.4138 265.1626 0004627  67.9306 292.2424 15.26150515 49228
FLOCK 4BE-36            
1 60486U 24149U   25187.21611863  .00008818  00000+0  31153-3 0  9995
2 60486  97.4067 265.4697 0006242  69.3328 290.8580 15.29421244 49259
FLOCK 4BE-25            
1 60487U 24149V   25187.17872607  .00007563  00000+0  28149-3 0  9993
2 60487  97.4120 265.2917 0004334  65.7313 294.4379 15.27765525 49221
FLOCK 4BE-31            
1 60488U 24149W   25187.19856107  .00009329  00000+0  32762-3 0  9991
2 60488  97.4121 265.7161 0004995  69.9163 290.2615 15.29607074 49257
FLOCK 4BE-20            
1 60489U 24149X   25187.15534438  .00007631  00000+0  28733-3 0  9995
2 60489  97.4038 264.8426 0005806  67.1725 293.0127 15.27373322 49214
FLOCK 4BE-23            
1 60490U 24149Y   25187.79016505  .00006523  00000+0  24775-3 0  9998
2 60490  97.4114 265.6640 0005568  68.6739 291.5094 15.27145771 49305
FLOCK 4BE-15            
1 60491U 24149Z   25187.16435732  .00006999  00000+0  25637-3 0  9992
2 60491  97.4052 265.1475 0005903  69.1294 291.0578 15.28315015 49238
FLOCK 4BE-17            
1 60492U 24149AA  25187.17577491  .00008473  00000+0  31287-3 0  9990
2 60492  97.4116 265.2915 0004837  69.3873 290.7885 15.27987350 49222
NUSAT-50 (NANCY ROMAN)  
1 60493U 24149AB  25187.19665618  .00008309  00000+0  30379-3 0  9991
2 60493  97.4095 265.3313 0005566  70.6413 289.5428 15.28318427 49231
FLOCK 4BE-22            
1 60494U 24149AC  25187.16190850  .00008101  00000+0  29459-3 0  9997
2 60494  97.4063 265.2112 0006751  75.4334 284.7654 15.28498657 49237
FLOCK 4BE-34            
1 60495U 24149AD  25187.16276919  .00008715  00000+0  30777-3 0  9995
2 60495  97.4106 265.5673 0006085  79.6334 280.5592 15.29438710 49248
